GSAT0233 (GALILEO 33)   
1 67160U 25302A   26115.42247191  .00000044  00000+0  00000+0 0  9993
2 67160  54.3016 103.6322 0002102 244.4795 289.0042  1.70474372  2224
GSAT0234 (GALILEO 34)   
1 67162U 25302C   26114.56077547  .00000043  00000+0  00000+0 0  9994
2 67162  54.3036 103.6556 0003906 293.1512 251.5938  1.70474332  2266
GPS BIII-9  (PRN 20)    
1 67588U 26017A   26110.36440864  .00000023  00000+0  00000+0 0  9998
2 67588  55.0497  91.0746 0024611 254.1378 105.5744  2.00572232430452
GPS BIII-10             
1 68791U 26087A   26112.34150053  .00002417  00000+0  19778-2 0  9994
2 68791  54.9968 210.8716 5942075 270.2176  26.1146  4.03281331    56
